ONEWEB-0349             
1 49281U 21090C   26150.80391846 -.00000031  00000+0 -10902-3 0  9999
2 49281  87.9183 277.9065 0001945 101.4091 258.7261 13.20769581227535
ONEWEB-0353             
1 49282U 21090D   26150.93197115  .00000152  00000+0  37477-3 0  9995
2 49282  87.8951 293.1452 0001665  90.7826 269.3494 13.14501444225318
ONEWEB-0356             
1 49283U 21090E   26150.80224677 -.00000020  00000+0 -81892-4 0  9993
2 49283  87.9184 277.9002 0002533  86.0802 274.0621 13.20772563227536
ONEWEB-0358             
1 49284U 21090F   26150.90743380  .00000081  00000+0  16636-3 0  9990
2 49284  87.9183 277.8825 0002082 100.4051 259.7317 13.20769744228275
ONEWEB-0359             
1 49285U 21090G   26150.90493484 -.00000024  00000+0 -91739-4 0  9995
2 49285  87.9180 277.8792 0002127 103.0483 257.0888 13.20771870228259
ONEWEB-0360             
1 49286U 21090H   26150.81906268 -.00000007  00000+0 -49426-4 0  9992
2 49286  87.9182 277.9027 0001987 104.5234 255.6120 13.20774126227559
ONEWEB-0361             
1 49287U 21090J   26150.87628998 -.00000054  00000+0 -16478-3 0  9992
2 49287  87.9183 277.8894 0002061 101.0165 259.1200 13.20769641228017
ONEWEB-0362             
1 49288U 21090K   26150.89099110 -.00000092  00000+0 -26135-3 0  9996
2 49288  87.9154 308.4255 0001655 103.4915 256.6402 13.19726725224639
ONEWEB-0363             
1 49289U 21090L   26150.89145765 -.00001230  00000+0 -30565-2 0  9991
2 49289  87.9182 277.8868 0002180  93.8661 266.2722 13.20782148228026
ONEWEB-0364             
1 49290U 21090M   26150.85440989  .00000062  00000+0  12163-3 0  9990
2 49290  87.9177 277.9027 0001908 100.3609 259.7739 13.20770198229155
ONEWEB-0365             
1 49291U 21090N   26150.97629274  .00000020  00000+0  17637-4 0  9996
2 49291  87.9164 308.3958 0001675  91.9038 268.2286 13.19726685224153
ONEWEB-0366             
1 49292U 21090P   26150.92879316  .00000153  00000+0  37904-3 0  9991
2 49292  87.8945 293.1482 0001877  99.3603 260.7739 13.14501063225299
ONEWEB-0367             
1 49293U 21090Q   26150.89062591 -.00000018  00000+0 -76382-4 0  9993
2 49293  87.9182 277.8879 0001775 103.4812 256.6519 13.20772153227546
ONEWEB-0368             
1 49294U 21090R   26150.86453116  .00000027  00000+0  34952-4 0  9993
2 49294  87.9172 277.9057 0001945  78.8760 281.2592 13.20772177228699
ONEWEB-0369             
1 49295U 21090S   26150.97155606 -.00000046  00000+0 -14641-3 0  9994
2 49295  87.9153 308.4060 0001762  92.9731 267.1604 13.19726220224144
ONEWEB-0370             
1 49296U 21090T   26150.89986797 -.00000020  00000+0 -81134-4 0  9993
2 49296  87.9181 277.8857 0001906 108.0573 252.0768 13.20773847227586
