[{"OBJECT_NAME":"ONEWEB-0349","OBJECT_ID":"2021-090C","EPOCH":"2026-05-30T19:17:38.554944","MEAN_MOTION":13.20769581,"ECCENTRICITY":0.0001945,"INCLINATION":87.9183,"RA_OF_ASC_NODE":277.9065,"ARG_OF_PERICENTER":101.4091,"MEAN_ANOMALY":258.7261,"EPHEMERIS_TYPE":0,"CLASSIFICATION_TYPE":"U","NORAD_CAT_ID":49281,"ELEMENT_SET_NO":999,"REV_AT_EPOCH":22753,"BSTAR":-0.00010902000000000001,"MEAN_MOTION_DOT":-3.1e-07,"MEAN_MOTION_DDOT":0.0},{"OBJECT_NAME":"ONEWEB-0353","OBJECT_ID":"2021-090D","EPOCH":"2026-05-30T22:22:02.307360","MEAN_MOTION":13.14501444,"ECCENTRICITY":0.0001665,"INCLINATION":87.8951,"RA_OF_ASC_NODE":293.1452,"ARG_OF_PERICENTER":90.7826,"MEAN_ANOMALY":269.3494,"EPHEMERIS_TYPE":0,"CLASSIFICATION_TYPE":"U","NORAD_CAT_ID":49282,"ELEMENT_SET_NO":999,"REV_AT_EPOCH":22531,"BSTAR":0.00037477,"MEAN_MOTION_DOT":1.52e-06,"MEAN_MOTION_DDOT":0.0},{"OBJECT_NAME":"ONEWEB-0356","OBJECT_ID":"2021-090E","EPOCH":"2026-05-30T19:15:14.120928","MEAN_MOTION":13.20772563,"ECCENTRICITY":0.0002533,"INCLINATION":87.9184,"RA_OF_ASC_NODE":277.9002,"ARG_OF_PERICENTER":86.0802,"MEAN_ANOMALY":274.0621,"EPHEMERIS_TYPE":0,"CLASSIFICATION_TYPE":"U","NORAD_CAT_ID":49283,"ELEMENT_SET_NO":999,"REV_AT_EPOCH":22753,"BSTAR":-8.189200000000001e-05,"MEAN_MOTION_DOT":-2e-07,"MEAN_MOTION_DDOT":0.0},{"OBJECT_NAME":"ONEWEB-0358","OBJECT_ID":"2021-090F","EPOCH":"2026-05-30T21:46:42.280320","MEAN_MOTION":13.20769744,"ECCENTRICITY":0.0002082,"INCLINATION":87.9183,"RA_OF_ASC_NODE":277.8825,"ARG_OF_PERICENTER":100.4051,"MEAN_ANOMALY":259.7317,"EPHEMERIS_TYPE":0,"CLASSIFICATION_TYPE":"U","NORAD_CAT_ID":49284,"ELEMENT_SET_NO":999,"REV_AT_EPOCH":22827,"BSTAR":0.00016636,"MEAN_MOTION_DOT":8.1e-07,"MEAN_MOTION_DDOT":0.0},{"OBJECT_NAME":"ONEWEB-0359","OBJECT_ID":"2021-090G","EPOCH":"2026-05-30T21:43:06.370176","MEAN_MOTION":13.2077187,"ECCENTRICITY":0.0002127,"INCLINATION":87.918,"RA_OF_ASC_NODE":277.8792,"ARG_OF_PERICENTER":103.0483,"MEAN_ANOMALY":257.0888,"EPHEMERIS_TYPE":0,"CLASSIFICATION_TYPE":"U","NORAD_CAT_ID":49285,"ELEMENT_SET_NO":999,"REV_AT_EPOCH":22825,"BSTAR":-9.173900000000001e-05,"MEAN_MOTION_DOT":-2.4e-07,"MEAN_MOTION_DDOT":0.0},{"OBJECT_NAME":"ONEWEB-0360","OBJECT_ID":"2021-090H","EPOCH":"2026-05-30T19:39:27.015552","MEAN_MOTION":13.20774126,"ECCENTRICITY":0.0001987,"INCLINATION":87.9182,"RA_OF_ASC_NODE":277.9027,"ARG_OF_PERICENTER":104.5234,"MEAN_ANOMALY":255.612,"EPHEMERIS_TYPE":0,"CLASSIFICATION_TYPE":"U","NORAD_CAT_ID":49286,"ELEMENT_SET_NO":999,"REV_AT_EPOCH":22755,"BSTAR":-4.9426e-05,"MEAN_MOTION_DOT":-7e-08,"MEAN_MOTION_DDOT":0.0},{"OBJECT_NAME":"ONEWEB-0361","OBJECT_ID":"2021-090J","EPOCH":"2026-05-30T21:01:51.454272","MEAN_MOTION":13.20769641,"ECCENTRICITY":0.0002061,"INCLINATION":87.9183,"RA_OF_ASC_NODE":277.8894,"ARG_OF_PERICENTER":101.0165,"MEAN_ANOMALY":259.12,"EPHEMERIS_TYPE":0,"CLASSIFICATION_TYPE":"U","NORAD_CAT_ID":49287,"ELEMENT_SET_NO":999,"REV_AT_EPOCH":22801,"BSTAR":-0.00016478,"MEAN_MOTION_DOT":-5.4e-07,"MEAN_MOTION_DDOT":0.0},{"OBJECT_NAME":"ONEWEB-0362","OBJECT_ID":"2021-090K","EPOCH":"2026-05-30T21:23:01.631040","MEAN_MOTION":13.19726725,"ECCENTRICITY":0.0001655,"INCLINATION":87.9154,"RA_OF_ASC_NODE":308.4255,"ARG_OF_PERICENTER":103.4915,"MEAN_ANOMALY":256.6402,"EPHEMERIS_TYPE":0,"CLASSIFICATION_TYPE":"U","NORAD_CAT_ID":49288,"ELEMENT_SET_NO":999,"REV_AT_EPOCH":22463,"BSTAR":-0.00026135000000000004,"MEAN_MOTION_DOT":-9.2e-07,"MEAN_MOTION_DDOT":0.0},{"OBJECT_NAME":"ONEWEB-0363","OBJECT_ID":"2021-090L","EPOCH":"2026-05-30T21:23:41.940960","MEAN_MOTION":13.20782148,"ECCENTRICITY":0.000218,"INCLINATION":87.9182,"RA_OF_ASC_NODE":277.8868,"ARG_OF_PERICENTER":93.8661,"MEAN_ANOMALY":266.2722,"EPHEMERIS_TYPE":0,"CLASSIFICATION_TYPE":"U","NORAD_CAT_ID":49289,"ELEMENT_SET_NO":999,"REV_AT_EPOCH":22802,"BSTAR":-0.0030564999999999998,"MEAN_MOTION_DOT":-1.23e-05,"MEAN_MOTION_DDOT":0.0},{"OBJECT_NAME":"ONEWEB-0364","OBJECT_ID":"2021-090M","EPOCH":"2026-05-30T20:30:21.014496","MEAN_MOTION":13.20770198,"ECCENTRICITY":0.0001908,"INCLINATION":87.9177,"RA_OF_ASC_NODE":277.9027,"ARG_OF_PERICENTER":100.3609,"MEAN_ANOMALY":259.7739,"EPHEMERIS_TYPE":0,"CLASSIFICATION_TYPE":"U","NORAD_CAT_ID":49290,"ELEMENT_SET_NO":999,"REV_AT_EPOCH":22915,"BSTAR":0.00012163,"MEAN_MOTION_DOT":6.2e-07,"MEAN_MOTION_DDOT":0.0},{"OBJECT_NAME":"ONEWEB-0365","OBJECT_ID":"2021-090N","EPOCH":"2026-05-30T23:25:51.692736","MEAN_MOTION":13.19726685,"ECCENTRICITY":0.0001675,"INCLINATION":87.9164,"RA_OF_ASC_NODE":308.3958,"ARG_OF_PERICENTER":91.9038,"MEAN_ANOMALY":268.2286,"EPHEMERIS_TYPE":0,"CLASSIFICATION_TYPE":"U","NORAD_CAT_ID":49291,"ELEMENT_SET_NO":999,"REV_AT_EPOCH":22415,"BSTAR":1.7637e-05,"MEAN_MOTION_DOT":2e-07,"MEAN_MOTION_DDOT":0.0},{"OBJECT_NAME":"ONEWEB-0366","OBJECT_ID":"2021-090P","EPOCH":"2026-05-30T22:17:27.729024","MEAN_MOTION":13.14501063,"ECCENTRICITY":0.0001877,"INCLINATION":87.8945,"RA_OF_ASC_NODE":293.1482,"ARG_OF_PERICENTER":99.3603,"MEAN_ANOMALY":260.7739,"EPHEMERIS_TYPE":0,"CLASSIFICATION_TYPE":"U","NORAD_CAT_ID":49292,"ELEMENT_SET_NO":999,"REV_AT_EPOCH":22529,"BSTAR":0.00037904,"MEAN_MOTION_DOT":1.53e-06,"MEAN_MOTION_DDOT":0.0},{"OBJECT_NAME":"ONEWEB-0367","OBJECT_ID":"2021-090Q","EPOCH":"2026-05-30T21:22:30.078624","MEAN_MOTION":13.20772153,"ECCENTRICITY":0.0001775,"INCLINATION":87.9182,"RA_OF_ASC_NODE":277.8879,"ARG_OF_PERICENTER":103.4812,"MEAN_ANOMALY":256.6519,"EPHEMERIS_TYPE":0,"CLASSIFICATION_TYPE":"U","NORAD_CAT_ID":49293,"ELEMENT_SET_NO":999,"REV_AT_EPOCH":22754,"BSTAR":-7.638200000000002e-05,"MEAN_MOTION_DOT":-1.8e-07,"MEAN_MOTION_DDOT":0.0},{"OBJECT_NAME":"ONEWEB-0368","OBJECT_ID":"2021-090R","EPOCH":"2026-05-30T20:44:55.492224","MEAN_MOTION":13.20772177,"ECCENTRICITY":0.0001945,"INCLINATION":87.9172,"RA_OF_ASC_NODE":277.9057,"ARG_OF_PERICENTER":78.876,"MEAN_ANOMALY":281.2592,"EPHEMERIS_TYPE":0,"CLASSIFICATION_TYPE":"U","NORAD_CAT_ID":49294,"ELEMENT_SET_NO":999,"REV_AT_EPOCH":22869,"BSTAR":3.4952e-05,"MEAN_MOTION_DOT":2.7e-07,"MEAN_MOTION_DDOT":0.0},{"OBJECT_NAME":"ONEWEB-0369","OBJECT_ID":"2021-090S","EPOCH":"2026-05-30T23:19:02.443584","MEAN_MOTION":13.1972622,"ECCENTRICITY":0.0001762,"INCLINATION":87.9153,"RA_OF_ASC_NODE":308.406,"ARG_OF_PERICENTER":92.9731,"MEAN_ANOMALY":267.1604,"EPHEMERIS_TYPE":0,"CLASSIFICATION_TYPE":"U","NORAD_CAT_ID":49295,"ELEMENT_SET_NO":999,"REV_AT_EPOCH":22414,"BSTAR":-0.00014641,"MEAN_MOTION_DOT":-4.6e-07,"MEAN_MOTION_DDOT":0.0},{"OBJECT_NAME":"ONEWEB-0370","OBJECT_ID":"2021-090T","EPOCH":"2026-05-30T21:35:48.592608","MEAN_MOTION":13.20773847,"ECCENTRICITY":0.0001906,"INCLINATION":87.9181,"RA_OF_ASC_NODE":277.8857,"ARG_OF_PERICENTER":108.0573,"MEAN_ANOMALY":252.0768,"EPHEMERIS_TYPE":0,"CLASSIFICATION_TYPE":"U","NORAD_CAT_ID":49296,"ELEMENT_SET_NO":999,"REV_AT_EPOCH":22758,"BSTAR":-8.1134e-05,"MEAN_MOTION_DOT":-2e-07,"MEAN_MOTION_DDOT":0.0}]